NORAD_CAT_ID,OBJECT_NAME,OBJECT_TYPE,EPOCH,MEAN_MOTION,ECCENTRICITY,INCLINATION,RA_OF_ASC_NODE,ARG_OF_PERICENTER,MEAN_ANOMALY,BSTAR,MEAN_MOTION_DOT,MEAN_MOTION_DDOT,TLE_LINE0,TLE_LINE1,TLE_LINE2,SEMIMAJOR_AXIS,PERIOD,APOGEE,PERIGEE,DECAYED
53264.0,STARLINK-3950,PAYLOAD,2023-10-09 18:03:37,15.08839274,0.0002168,53.2154,193.2938,74.37,285.7532,0.00023035,3.38e-05,0.0,0 STARLINK-3950,1 53264U 22086Y   23282.75251665  .00003380  00000-0  23035-3 0  9992,2 53264  53.2154 193.2938 0002168  74.3700 285.7532 15.08839274 67748,6917.883,95.438,541.247,538.248,0.0
53264.0,STARLINK-3950,PAYLOAD,2023-10-10 03:35:56,15.08852207,0.0001409,53.2156,191.5077,76.0581,284.0568,0.0024258,0.00038543,0.0,0 STARLINK-3950,1 53264U 22086Y   23283.14995616  .00038543  00000-0  24258-2 0  9993,2 53264  53.2156 191.5077 0001409  76.0581 284.0568 15.08852207 67807,6917.843,95.437,540.683,538.733,0.0
53264.0,STARLINK-3950,PAYLOAD,2023-10-10 11:32:51,15.08849796,9.67e-05,53.2168,190.0212,79.1219,280.9882,0.0011709,0.00018401,0.0,0 STARLINK-3950,1 53264U 22086Y   23283.48115614  .00018401  00000-0  11709-2 0  9990,2 53264  53.2168 190.0212 0000967  79.1219 280.9882 15.08849796 68034,6917.85,95.437,540.384,539.046,0.0
53264.0,STARLINK-3950,PAYLOAD,2023-10-10 21:05:10,15.0886485,0.0001188,53.2165,188.2377,79.4046,280.708,0.001755,0.00027772,0.0,0 STARLINK-3950,1 53264U 22086Y   23283.87859416  .00027772  00000-0  17550-2 0  9999,2 53264  53.2165 188.2377 0001188  79.4046 280.7080 15.08864850 68091,6917.804,95.436,540.491,538.848,0.0
53264.0,STARLINK-3950,PAYLOAD,2023-10-11 00:15:56,15.08890885,0.0001599,53.217,187.6428,85.6482,274.4693,0.0031198,0.00049784,0.0,0 STARLINK-3950,1 53264U 22086Y   23284.01107051  .00049784  00000-0  31198-2 0  9998,2 53264  53.2170 187.6428 0001599  85.6482 274.4693 15.08890885 67935,6917.725,95.434,540.696,538.484,0.0
53264.0,STARLINK-3950,PAYLOAD,2023-10-12 04:52:52,15.08847491,0.0001629,53.2166,182.2896,100.0942,260.0234,0.0019326,0.0003061,0.0,0 STARLINK-3950,1 53264U 22086Y   23285.20339039  .00030610  00000-0  19326-2 0  9990,2 53264  53.2166 182.2896 0001629 100.0942 260.0234 15.08847491 68115,6917.857,95.437,540.849,538.596,0.0
53264.0,STARLINK-3950,PAYLOAD,2023-10-12 17:35:58,15.08831053,0.0001726,53.2172,179.91,69.7865,290.3313,0.0012091,0.00019003,0.0,0 STARLINK-3950,1 53264U 22086Y   23285.73332087  .00019003  00000-0  12091-2 0  9999,2 53264  53.2172 179.9100 0001726  69.7865 290.3313 15.08831053 68195,6917.908,95.438,540.967,538.579,0.0
53264.0,STARLINK-3950,PAYLOAD,2023-10-12 22:22:08,15.08837853,0.000156,53.217,179.0185,88.8323,271.2848,0.0016555,0.00026156,0.0,0 STARLINK-3950,1 53264U 22086Y   23285.93204146  .00026156  00000-0  16555-2 0  9991,2 53264  53.2170 179.0185 0001560  88.8323 271.2848 15.08837853 68403,6917.887,95.438,540.831,538.673,0.0
53264.0,STARLINK-3950,PAYLOAD,2023-10-13 09:29:50,15.08847107,0.0001376,53.2166,176.9385,89.69,270.425,0.0011001,0.00017267,0.0,0 STARLINK-3950,1 53264U 22086Y   23286.39572123  .00017267  00000-0  11001-2 0  9999,2 53264  53.2166 176.9385 0001376  89.6900 270.4250 15.08847107 68479,6917.859,95.437,540.676,538.772,0.0
53264.0,STARLINK-3950,PAYLOAD,2023-10-13 20:37:32,15.08844423,0.0001747,53.217,174.8573,95.8226,264.2965,0.00078016,0.00012152,0.0,0 STARLINK-3950,1 53264U 22086Y   23286.85940278  .00012152  00000-0  78016-3 0  9998,2 53264  53.2170 174.8573 0001747  95.8226 264.2965 15.08844423 68362,6917.867,95.437,540.94,538.523,0.0
53264.0,STARLINK-3950,PAYLOAD,2023-10-14 09:20:37,15.08837753,0.000193,53.2166,172.4776,87.319,272.8023,0.00015841,2.234e-05,0.0,0 STARLINK-3950,1 53264U 22086Y   23287.38932433  .00002234  00000-0  15841-3 0  9998,2 53264  53.2166 172.4776 0001930  87.3190 272.8023 15.08837753 68443,6917.887,95.438,541.087,538.417,0.0
53264.0,STARLINK-3950,PAYLOAD,2023-10-14 22:03:42,15.088207,0.0001144,53.2163,170.1001,96.586,263.5262,-0.00037901,-6.311e-05,0.0,0 STARLINK-3950,1 53264U 22086Y   23287.91924751 -.00006311  00000-0 -37901-3 0  9994,2 53264  53.2163 170.1001 0001144  96.5860 263.5262 15.08820700 68704,6917.939,95.439,540.596,539.013,0.0
53264.0,STARLINK-3950,PAYLOAD,2023-10-15 01:14:29,15.08820835,0.0001225,53.2163,169.5049,94.7759,265.3373,-0.00019663,-3.414e-05,0.0,0 STARLINK-3950,1 53264U 22086Y   23288.05173299 -.00003414  00000-0 -19663-3 0  9999,2 53264  53.2163 169.5049 0001225  94.7759 265.3373 15.08820835 68549,6917.939,95.439,540.651,538.957,0.0
53264.0,STARLINK-3950,PAYLOAD,2023-10-15 09:11:25,15.08828897,0.0001173,53.2161,168.018,98.5897,261.5228,-5.9661e-06,-3.83e-06,0.0,0 STARLINK-3950,1 53264U 22086Y   23288.38293276 -.00000383  00000-0 -59661-5 0  9999,2 53264  53.2161 168.0180 0001173  98.5897 261.5228 15.08828897 68592,6917.914,95.438,540.591,538.968,0.0
53264.0,STARLINK-3950,PAYLOAD,2023-10-15 20:19:07,15.0884116,9.2e-05,53.2163,165.9379,108.8391,251.2701,0.00026208,3.886e-05,0.0,0 STARLINK-3950,1 53264U 22086Y   23288.84660987  .00003886  00000-0  26208-3 0  9995,2 53264  53.2163 165.9379 0000920 108.8391 251.2701 15.08841160 68661,6917.877,95.437,540.378,539.105,0.0
53264.0,STARLINK-3950,PAYLOAD,2023-10-15 21:54:30,15.08846501,0.0001022,53.2159,165.6401,106.0027,254.1078,0.00030222,4.526e-05,0.0,0 STARLINK-3950,1 53264U 22086Y   23288.91284836  .00004526  00000-0  30222-3 0  9991,2 53264  53.2159 165.6401 0001022 106.0027 254.1078 15.08846501 68853,6917.861,95.437,540.433,539.019,0.0
53264.0,STARLINK-3950,PAYLOAD,2023-10-16 01:05:16,15.08853529,0.0001019,53.216,165.0449,102.828,257.2826,0.00046076,7.055e-05,0.0,0 STARLINK-3950,1 53264U 22086Y   23289.04532633  .00007055  00000-0  46076-3 0  9991,2 53264  53.2160 165.0449 0001019 102.8280 257.2826 15.08853529 68697,6917.839,95.437,540.409,538.999,0.0
53264.0,STARLINK-3950,PAYLOAD,2023-10-16 09:02:12,15.08842779,0.0001269,53.2156,163.5559,92.4925,267.6212,0.00039285,5.97e-05,0.0,0 STARLINK-3950,1 53264U 22086Y   23289.37653276  .00005970  00000-0  39285-3 0  9992,2 53264  53.2156 163.5559 0001269  92.4925 267.6212 15.08842779 68749,6917.872,95.437,540.615,538.859,0.0
53264.0,STARLINK-3950,PAYLOAD,2023-10-17 08:52:57,15.08856166,0.0001733,53.2132,159.096,259.9744,100.1053,0.00019332,2.791e-05,0.0,0 STARLINK-3950,1 53264U 22086Y   23290.37011190  .00002791  00000-0  19332-3 0  9996,2 53264  53.2132 159.0960 0001733 259.9744 100.1053 15.08856166 69070,6917.831,95.437,540.895,538.497,0.0
53264.0,STARLINK-3950,PAYLOAD,2023-10-17 21:36:03,15.08848073,0.0001449,53.2127,156.7165,85.1542,274.9615,0.00016691,2.37e-05,0.0,0 STARLINK-3950,1 53264U 22086Y   23290.90004537  .00002370  00000-0  16691-3 0  9990,2 53264  53.2127 156.7165 0001449  85.1542 274.9615 15.08848073 69155,6917.856,95.437,540.723,538.718,0.0
53264.0,STARLINK-3950,PAYLOAD,2023-10-18 08:43:46,15.08835941,0.0002302,53.2148,154.6353,90.1259,269.9997,-9.5697e-05,-1.811e-05,0.0,0 STARLINK-3950,1 53264U 22086Y   23291.36373227 -.00001811  00000-0 -95697-4 0  9991,2 53264  53.2148 154.6353 0002302  90.1259 269.9997 15.08835941 69049,6917.893,95.438,541.35,538.165,0.0
53264.0,STARLINK-3950,PAYLOAD,2023-10-18 15:05:18,15.08853984,0.00042,53.2117,153.4453,95.9555,264.1916,-0.00013563,-2.448e-05,0.0,0 STARLINK-3950,1 53264U 22086Y   23291.62868471 -.00002448  00000-0 -13563-3 0  9998,2 53264  53.2117 153.4453 0004200  95.9555 264.1916 15.08853984 69083,6917.838,95.437,542.608,536.797,0.0
53264.0,STARLINK-3950,PAYLOAD,2023-10-18 21:26:50,15.08849821,0.0003404,53.213,152.2555,91.571,268.5672,-9.6974e-06,-4.43e-06,0.0,0 STARLINK-3950,1 53264U 22086Y   23291.89364516 -.00000443  00000-0 -96974-5 0  9990,2 53264  53.2130 152.2555 0003404  91.5710 268.5672 15.08849821 69305,6917.85,95.437,542.07,537.361,0.0
53264.0,STARLINK-3950,PAYLOAD,2023-10-19 00:37:38,15.08812369,0.0003649,53.2146,151.661,87.4671,272.6739,5.0677e-05,5.17e-06,0.0,0 STARLINK-3950,1 53264U 22086Y   23292.02614422  .00000517  00000-0  50677-4 0  9999,2 53264  53.2146 151.6610 0003649  87.4671 272.6739 15.08812369 69147,6917.965,95.439,542.354,537.305,0.0
53264.0,STARLINK-3950,PAYLOAD,2023-10-19 21:17:39,15.08808248,0.00032,53.2153,147.795,90.9397,269.1962,-0.00067067,-0.00010938,0.0,0 STARLINK-3950,1 53264U 22086Y   23292.88725695 -.00010938  00000-0 -67067-3 0  9998,2 53264  53.2153 147.7950 0003200  90.9397 269.1962 15.08808248 69279,6917.977,95.44,542.056,537.629,0.0
53264.0,STARLINK-3950,PAYLOAD,2023-10-20 00:28:23,15.08851299,0.000231,53.2152,147.2013,94.0476,266.078,0.00050134,7.702e-05,0.0,0 STARLINK-3950,1 53264U 22086Y   23293.01972208  .00007702  00000-0  50134-3 0  9998,2 53264  53.2152 147.2013 0002310  94.0476 266.0780 15.08851299 69297,6917.846,95.437,541.309,538.113,0.0
53264.0,STARLINK-3950,PAYLOAD,2023-10-20 17:57:38,15.08832176,0.0001953,53.2137,143.9288,91.6079,268.5137,-9.0911e-05,-1.734e-05,0.0,0 STARLINK-3950,1 53264U 22086Y   23293.74836710 -.00001734  00000-0 -90911-4 0  9994,2 53264  53.2137 143.9288 0001953  91.6079 268.5137 15.08832176 69400,6917.904,95.438,541.12,538.418,0.0
53264.0,STARLINK-3950,PAYLOAD,2023-10-20 21:08:25,15.08832341,0.0001546,53.2171,143.3325,73.9201,286.1961,-8.3895e-05,-1.623e-05,0.0,0 STARLINK-3950,1 53264U 22086Y   23293.88084904 -.00001623  00000-0 -83895-4 0  9999,2 53264  53.2171 143.3325 0001546  73.9201 286.1961 15.08832341 69609,6917.904,95.438,540.838,538.699,0.0
53264.0,STARLINK-3950,PAYLOAD,2023-10-21 06:40:44,15.08837088,0.0001249,53.2151,141.5516,92.6469,267.4666,9.2033e-05,1.177e-05,0.0,0 STARLINK-3950,1 53264U 22086Y   23294.27828863  .00001177  00000-0  92033-4 0  9999,2 53264  53.2151 141.5516 0001249  92.6469 267.4666 15.08837088 69666,6917.889,95.438,540.618,538.89,0.0
53264.0,STARLINK-3950,PAYLOAD,2023-10-21 20:59:11,15.08852785,0.0001128,53.2159,138.8744,83.2179,276.8942,0.0003777,5.73e-05,0.0,0 STARLINK-3950,1 53264U 22086Y   23294.87444377  .00005730  00000-0  37770-3 0  9994,2 53264  53.2159 138.8744 0001128  83.2179 276.8942 15.08852785 69578,6917.841,95.437,540.487,538.926,0.0
